ISS (ZARYA)             
1 25544U 98067A   25365.56511186  .00015372  00000+0  28665-3 0  9991
2 25544  51.6330  49.2494 0007503 324.2875  35.7611 15.48977139545773
CSS (TIANHE)            
1 48274U 21035A   25365.60560750  .00025573  00000+0  31026-3 0  9992
2 48274  41.4668 262.1077 0009846 190.9351 169.1275 15.59967357266974
ISS (NAUKA)             
1 49044U 21066A   25365.56511186  .00015372  00000+0  28665-3 0  9997
2 49044  51.6330  49.2494 0007503 324.2875  35.7611 15.48977139230449
FREGAT DEB              
1 49271U 11037PF  25365.59630487  .00025333  00000+0  54784-1 0  9992
2 49271  51.6466 143.6810 0871591 265.1469  84.9449 12.34776872204269
CSS (WENTIAN)           
1 53239U 22085A   25365.60560750  .00025573  00000+0  31026-3 0  9995
2 53239  41.4668 262.1077 0009846 190.9351 169.1275 15.59967357173844
CSS (MENGTIAN)          
1 54216U 22143A   25365.60560750  .00025573  00000+0  31026-3 0  9996
2 54216  41.4668 262.1077 0009846 190.9351 169.1275 15.59967357158641
SHENZHOU-20 (SZ-20)     
1 63632U 25082A   25365.60560750  .00025573  00000+0  31026-3 0  9993
2 63632  41.4668 262.1077 0009846 190.9351 169.1275 15.59967357255304
PROGRESS-MS 31          
1 64751U 25146A   25365.56511186  .00015372  00000+0  28665-3 0  9992
2 64751  51.6330  49.2494 0007503 324.2875  35.7611 15.48977139  6756
TIANZHOU-9              
1 64786U 25149A   25365.60560750  .00025573  00000+0  31026-3 0  9998
2 64786  41.4668 262.1077 0009846 190.9351 169.1275 15.59967357255305
CREW DRAGON 11          
1 65077U 25166A   25365.56511186  .00015372  00000+0  28665-3 0  9996
2 65077  51.6330  49.2494 0007503 324.2875  35.7611 15.48977139  2147
DRAGON CRS-33           
1 65304U 25186A   25365.56511186  .00015372  00000+0  28665-3 0  9991
2 65304  51.6330  49.2494 0007503 324.2875  35.7611 15.48977139   115
PROGRESS-MS 32          
1 65586U 25204A   25365.56511186  .00015372  00000+0  28665-3 0  9994
2 65586  51.6330  49.2494 0007503 324.2875  35.7611 15.48977139   274
